{
  "type": "FeatureCollection",
  "features": [
    {
      "type": "Feature",
      "properties": {
        "norad_id": 34079,
        "name": "IRIDIUM 33 DEB",
        "group": "iridium-33-debris",
        "lat": 81.55903886709925,
        "lon": 36.19001375105055,
        "alt_km": 609.1774709714864,
        "timestamp": "2025-12-07T18:50:17.099937+00:00",
        "meta_object_name": "IRIDIUM 33 DEB",
        "meta_object_id": "1997-051CN",
        "meta_epoch": "2025-12-07T02:22:48.351936",
        "meta_mean_motion": 14.83309464,
        "meta_eccentricity": 0.00062689,
        "meta_inclination": 86.377,
        "meta_ra_of_asc_node": 11.2267,
        "meta_arg_of_pericenter": 26.0666,
        "meta_mean_anomaly": 356.8012,
        "meta_ephemeris_type": 0,
        "meta_classification_type": "U",
        "meta_norad_cat_id": 34079,
        "meta_element_set_no": 999,
        "meta_rev_at_epoch": 88894,
        "meta_bstar": 0.0024974802,
        "meta_mean_motion_dot": 0.00020511,
        "meta_mean_motion_ddot": 0,
        "tle_line1": "1 34079U 97051CN  25341.09917074  .00020511  00000+0  24975-2 0  9994",
        "tle_line2": "2 34079  86.3770  11.2267 0006268  26.0666 356.8012 14.83309464888947"
      },
      "geometry": {
        "type": "Point",
        "coordinates": [
          36.19001375105055,
          81.55903886709925
        ]
      }
    },
    {
      "type": "Feature",
      "properties": {
        "norad_id": 34088,
        "name": "IRIDIUM 33 DEB",
        "group": "iridium-33-debris",
        "lat": 35.03074647765615,
        "lon": 35.54051832551875,
        "alt_km": 595.9717600451731,
        "timestamp": "2025-12-07T18:50:17.099947+00:00",
        "meta_object_name": "IRIDIUM 33 DEB",
        "meta_object_id": "1997-051CX",
        "meta_epoch": "2025-12-06T22:31:14.068992",
        "meta_mean_motion": 14.90964191,
        "meta_eccentricity": 0.00052577,
        "meta_inclination": 86.3849,
        "meta_ra_of_asc_node": 33.389,
        "meta_arg_of_pericenter": 198.2241,
        "meta_mean_anomaly": 336.0244,
        "meta_ephemeris_type": 0,
        "meta_classification_type": "U",
        "meta_norad_cat_id": 34088,
        "meta_element_set_no": 999,
        "meta_rev_at_epoch": 88655,
        "meta_bstar": 0.0039064328,
        "meta_mean_motion_dot": 0.00038774,
        "meta_mean_motion_ddot": 0,
        "tle_line1": "1 34088U 97051CX  25340.93835728  .00038774  00000+0  39064-2 0  9996",
        "tle_line2": "2 34088  86.3849  33.3890 0005257 198.2241 336.0244 14.90964191886553"
      },
      "geometry": {
        "type": "Point",
        "coordinates": [
          35.54051832551875,
          35.03074647765615
        ]
      }
    },
    {
      "type": "Feature",
      "properties": {
        "norad_id": 34091,
        "name": "IRIDIUM 33 DEB",
        "group": "iridium-33-debris",
        "lat": 33.2402870827167,
        "lon": 71.50541681678784,
        "alt_km": 620.2513163372878,
        "timestamp": "2025-12-07T18:50:17.099958+00:00",
        "meta_object_name": "IRIDIUM 33 DEB",
        "meta_object_id": "1997-051DA",
        "meta_epoch": "2025-12-07T05:43:03.828000",
        "meta_mean_motion": 14.81184978,
        "meta_eccentricity": 0.00330049,
        "meta_inclination": 86.342,
        "meta_ra_of_asc_node": 69.3525,
        "meta_arg_of_pericenter": 313.1267,
        "meta_mean_anomaly": 46.7195,
        "meta_ephemeris_type": 0,
        "meta_classification_type": "U",
        "meta_norad_cat_id": 34091,
        "meta_element_set_no": 999,
        "meta_rev_at_epoch": 87785,
        "meta_bstar": 0.0076006006,
        "meta_mean_motion_dot": 0.00060142,
        "meta_mean_motion_ddot": 0,
        "tle_line1": "1 34091U 97051DA  25341.23823875  .00060142  00000+0  76006-2 0  9995",
        "tle_line2": "2 34091  86.3420  69.3525 0033004 313.1267  46.7195 14.81184978877853"
      },
      "geometry": {
        "type": "Point",
        "coordinates": [
          71.50541681678784,
          33.2402870827167
        ]
      }
    },
    {
      "type": "Feature",
      "properties": {
        "norad_id": 34097,
        "name": "IRIDIUM 33 DEB",
        "group": "iridium-33-debris",
        "lat": 34.49607197146033,
        "lon": 6.212579468298825,
        "alt_km": 716.64203287481,
        "timestamp": "2025-12-07T18:50:17.099968+00:00",
        "meta_object_name": "IRIDIUM 33 DEB",
        "meta_object_id": "1997-051DG",
        "meta_epoch": "2025-12-07T00:16:03.805824",
        "meta_mean_motion": 14.3470981,
        "meta_eccentricity": 0.00832478,
        "meta_inclination": 86.1998,
        "meta_ra_of_asc_node": 3.9361,
        "meta_arg_of_pericenter": 20.8098,
        "meta_mean_anomaly": 339.6453,
        "meta_ephemeris_type": 0,
        "meta_classification_type": "U",
        "meta_norad_cat_id": 34097,
        "meta_element_set_no": 999,
        "meta_rev_at_epoch": 87037,
        "meta_bstar": 0.0021305207,
        "meta_mean_motion_dot": 6.291e-05,
        "meta_mean_motion_ddot": 0,
        "tle_line1": "1 34097U 97051DG  25341.01115516  .00006291  00000+0  21305-2 0  9990",
        "tle_line2": "2 34097  86.1998   3.9361 0083247  20.8098 339.6453 14.34709810870374"
      },
      "geometry": {
        "type": "Point",
        "coordinates": [
          6.212579468298825,
          34.49607197146033
        ]
      }
    },
    {
      "type": "Feature",
      "properties": {
        "norad_id": 34145,
        "name": "IRIDIUM 33 DEB",
        "group": "iridium-33-debris",
        "lat": 9.476113320086576,
        "lon": 154.0992172709509,
        "alt_km": 733.4518780967464,
        "timestamp": "2025-12-07T18:50:17.099978+00:00",
        "meta_object_name": "IRIDIUM 33 DEB",
        "meta_object_id": "1997-051DY",
        "meta_epoch": "2025-12-06T23:44:21.212160",
        "meta_mean_motion": 14.42227143,
        "meta_eccentricity": 0.00555175,
        "meta_inclination": 86.2111,
        "meta_ra_of_asc_node": 335.0873,
        "meta_arg_of_pericenter": 112.1004,
        "meta_mean_anomaly": 248.6104,
        "meta_ephemeris_type": 0,
        "meta_classification_type": "U",
        "meta_norad_cat_id": 34145,
        "meta_element_set_no": 999,
        "meta_rev_at_epoch": 87555,
        "meta_bstar": 0.0016428415,
        "meta_mean_motion_dot": 5.534e-05,
        "meta_mean_motion_ddot": 0,
        "tle_line1": "1 34145U 97051DY  25340.98913440  .00005534  00000+0  16428-2 0  9990",
        "tle_line2": "2 34145  86.2111 335.0873 0055517 112.1004 248.6104 14.42227143875554"
      },
      "geometry": {
        "type": "Point",
        "coordinates": [
          154.0992172709509,
          9.476113320086576
        ]
      }
    },
    {
      "type": "Feature",
      "properties": {
        "norad_id": 34146,
        "name": "IRIDIUM 33 DEB",
        "group": "iridium-33-debris",
        "lat": 46.9361550589349,
        "lon": -4.0223810366136545,
        "alt_km": 742.3042079800216,
        "timestamp": "2025-12-07T18:50:17.099988+00:00",
        "meta_object_name": "IRIDIUM 33 DEB",
        "meta_object_id": "1997-051DZ",
        "meta_epoch": "2025-12-07T07:05:35.066400",
        "meta_mean_motion": 14.48992065,
        "meta_eccentricity": 0.00250964,
        "meta_inclination": 86.2832,
        "meta_ra_of_asc_node": 352.2054,
        "meta_arg_of_pericenter": 241.082,
        "meta_mean_anomaly": 134.8625,
        "meta_ephemeris_type": 0,
        "meta_classification_type": "U",
        "meta_norad_cat_id": 34146,
        "meta_element_set_no": 999,
        "meta_rev_at_epoch": 88028,
        "meta_bstar": 0.0015620936,
        "meta_mean_motion_dot": 5.964e-05,
        "meta_mean_motion_ddot": 0,
        "tle_line1": "1 34146U 97051DZ  25341.29554475  .00005964  00000+0  15621-2 0  9996",
        "tle_line2": "2 34146  86.2832 352.2054 0025096 241.0820 134.8625 14.48992065880282"
      },
      "geometry": {
        "type": "Point",
        "coordinates": [
          -4.0223810366136545,
          46.9361550589349
        ]
      }
    },
    {
      "type": "Feature",
      "properties": {
        "norad_id": 34159,
        "name": "IRIDIUM 33 DEB",
        "group": "iridium-33-debris",
        "lat": -50.30836785460886,
        "lon": 45.945634971386184,
        "alt_km": 751.9112321473685,
        "timestamp": "2025-12-07T18:50:17.099999+00:00",
        "meta_object_name": "IRIDIUM 33 DEB",
        "meta_object_id": "1997-051EN",
        "meta_epoch": "2025-12-07T04:02:44.779776",
        "meta_mean_motion": 14.3847292,
        "meta_eccentricity": 0.00261399,
        "meta_inclination": 86.3518,
        "meta_ra_of_asc_node": 50.617,
        "meta_arg_of_pericenter": 307.4313,
        "meta_mean_anomaly": 52.4506,
        "meta_ephemeris_type": 0,
        "meta_classification_type": "U",
        "meta_norad_cat_id": 34159,
        "meta_element_set_no": 999,
        "meta_rev_at_epoch": 87879,
        "meta_bstar": 0.00071185552,
        "meta_mean_motion_dot": 2.2e-05,
        "meta_mean_motion_ddot": 0,
        "tle_line1": "1 34159U 97051EN  25341.16857384  .00002200  00000+0  71186-3 0  9990",
        "tle_line2": "2 34159  86.3518  50.6170 0026139 307.4313  52.4506 14.38472920878797"
      },
      "geometry": {
        "type": "Point",
        "coordinates": [
          45.945634971386184,
          -50.30836785460886
        ]
      }
    }
  ]
}